ORBCOMM FM37            
1 33064U 08031E   24187.38111174  .00001818  00000+0  28598-3 0  9998
2 33064  48.4380 188.8667 0006497 328.4033 175.9222 14.76752254862735
ORBCOMM FM40            
1 33065U 08031F   24187.52927117  .00003022  00000+0  44128-3 0  9993
2 33065  48.4405 176.9814 0007726 339.1178 167.9329 14.78154073863244
VESSELSAT 1             
1 37840U 11058C   24187.85764126  .00000410  00000+0  79597-4 0  9993
2 37840  19.9634  29.2578 0013646 337.7076  22.2735 14.11171696657558
ORBCOMM FM109           
1 40086U 14040A   24187.47498731  .00000769  00000+0  20731-3 0  9999
2 40086  47.0022 212.2038 0001607 199.4349 160.6475 14.56787159530602
ORBCOMM FM107           
1 40087U 14040B   24187.85174368  .00000770  00000+0  20751-3 0  9993
2 40087  47.0040 211.3986 0000535 182.7197 177.3685 14.56800178530650
ORBCOMM FM106           
1 40088U 14040C   24187.37443709  .00001459  00000+0  28827-3 0  9996
2 40088  47.0621  62.6385 0018227 256.5159 103.3700 14.67254839532503
ORBCOMM FM111           
1 40089U 14040D   24187.51817071  .00003330  00000+0  43560-3 0  9991
2 40089  47.0050 316.3065 0033210 334.1997  25.7241 14.82172633538721
ORBCOMM FM104           
1 40090U 14040E   24187.46931344  .00000711  00000+0  20101-3 0  9993
2 40090  47.0046 242.7482 0016081  59.1446 301.1019 14.55274273530092
